[{"OBJECT_NAME":"GAOFEN-9 05","OBJECT_ID":"2020-058A","EPOCH":"2026-03-10T00:01:50.876256","MEAN_MOTION":15.30293976,"ECCENTRICITY":0.0010522,"INCLINATION":97.2228,"RA_OF_ASC_NODE":111.963,"ARG_OF_PERICENTER":91.0204,"MEAN_ANOMALY":269.2242,"EPHEMERIS_TYPE":0,"CLASSIFICATION_TYPE":"U","NORAD_CAT_ID":46232,"ELEMENT_SET_NO":999,"REV_AT_EPOCH":30843,"BSTAR":0.00025120304,"MEAN_MOTION_DOT":7.299e-5,"MEAN_MOTION_DDOT":0},{"OBJECT_NAME":"STARLINK-32615","OBJECT_ID":"2024-216C","EPOCH":"2026-03-09T19:35:17.856960","MEAN_MOTION":15.2755379,"ECCENTRICITY":0.00029463,"INCLINATION":43.0001,"RA_OF_ASC_NODE":255.7206,"ARG_OF_PERICENTER":281.4764,"MEAN_ANOMALY":78.5756,"EPHEMERIS_TYPE":0,"CLASSIFICATION_TYPE":"U","NORAD_CAT_ID":62034,"ELEMENT_SET_NO":999,"REV_AT_EPOCH":7273,"BSTAR":0.00067424079,"MEAN_MOTION_DOT":0.00018324,"MEAN_MOTION_DDOT":0}]
